IRIDIUM 171             
1 43929U 19002H   24244.10470996  .00000280  00000+0  92935-4 0  9992
2 43929  86.3921 267.5468 0002226  99.6308 260.5139 14.34218751295067
IRIDIUM 170             
1 43930U 19002J   24244.09235209  .00001347  00000+0  20977-3 0  9999
2 43930  86.6023 267.3548 0002528  83.7343 276.4162 14.72240676302873
IRIDIUM 167             
1 43931U 19002K   24244.09836618  .00000298  00000+0  99519-4 0  9994
2 43931  86.3913 267.3321 0002178  94.6882 265.4563 14.34219450295067
IRIDIUM 181             
1 56726U 23068S   24244.52351843  .00001263  00000+0  36746-3 0  9992
2 56726  86.8668 324.5718 0001902  98.6573 261.4845 14.43579770 68001
IRIDIUM 177             
1 56727U 23068T   24244.12778629  .00002734  00000+0  35616-3 0  9993
2 56727  86.1936 279.7759 0002059  93.9538 266.1918 14.80245278 69460
IRIDIUM 174             
1 56728U 23068U   24244.39275177  .00002865  00000+0  37334-3 0  9997
2 56728  86.1940 279.7594 0001701  99.0167 261.1246 14.80250135 69503
IRIDIUM 178             
1 56729U 23068V   24243.91414224  .00005972  00000+0  78202-3 0  9994
2 56729  86.5773 301.0042 0002008 100.9974 259.1474 14.80239652 69431
IRIDIUM 179             
1 56730U 23068W   24244.44961681  .00006141  00000+0  80510-3 0  9993
2 56730  86.6793 305.8602 0002180  86.9675 273.1796 14.80198127 69515
